GOES 1 (SMS-C) [-]      
1 08366U 75100A   22300.50260299 -.00000215  00000+0  00000+0 0  9993
2 08366   7.9615 294.0797 0003118 274.8064 285.3656  1.00254738171885
GOES 2 [-]              
1 10061U 77048A   22300.23376410 -.00000094  00000+0  00000+0 0  9999
2 10061   9.5565 305.7088 0010836  21.1079 161.2462  0.99400697110300
GOES 3 [-]              
1 10953U 78062A   22299.69563340  .00000068  00000+0  00000+0 0  9993
2 10953   9.8968 310.2932 0002178 185.0500   3.6053  0.99360820115323
GOES 4 [-]              
1 11964U 80074A   22299.63046191  .00000064  00000+0  00000+0 0  9992
2 11964  10.8644 314.1201 0031117  77.6828  90.1808  0.99229613114248
GOES 5 [-]              
1 12472U 81049A   22299.49916331 -.00000277  00000+0  00000+0 0  9993
2 12472  11.7353 325.5681 0002154 215.9731 325.5379  1.00286325109515
GOES 6 [-]              
1 14050U 83041A   22299.51018056 -.00000256  00000+0  00000+0 0  9998
2 14050  12.3105 330.8973 0004209 169.2268   3.5713  1.00268953202687
GOES 7 [-]              
1 17561U 87022A   22299.67231810  .00000010  00000+0  00000+0 0  9990
2 17561  14.1316 347.4747 0003827  76.5959 283.7978  0.99889052113677
GOES 8 [-]              
1 23051U 94022A   22299.77341177  .00000040  00000+0  00000+0 0  9991
2 23051  13.2891  23.2586 0003734  53.9204 312.2411  0.98902524110985
GOES 9 [-]              
1 23581U 95025A   22299.24522219 -.00000126  00000+0  00000+0 0  9999
2 23581  12.7831  23.6345 0007191 125.1350 268.6871  0.98799604 99627
GOES 10 [-]             
1 24786U 97019A   22299.68173575 -.00000214  00000+0  00000+0 0  9995
2 24786  11.5686  29.8455 0027551 202.2675 166.4730  0.99123865 92891
GOES 11 [-]             
1 26352U 00022A   22291.26350845 -.00000228  00000+0  00000+0 0  9992
2 26352   8.9423  58.3244 0002647 151.9776 254.4245  0.99045314 39224
GOES 12 [-]             
1 26871U 01031A   22299.42377380 -.00000006  00000+0  00000+0 0  9992
2 26871   9.7520  47.3086 0003399 308.7002  96.0946  0.99134613 77588
EWS-G1 (GOES 13) [+]    
1 29155U 06018A   22299.83313057  .00000051  00000+0  00000+0 0  9995
2 29155   0.9067  94.6163 0006497 129.4106 172.5059  1.00269046 30048
GOES 14 [B]             
1 35491U 09033A   22300.42647701 -.00000082  00000+0  00000+0 0  9994
2 35491   0.2931 265.9394 0018132 311.7952 227.3195  1.00272425 48835
GOES 15 [B]             
1 36411U 10008A   22300.42176818  .00000068  00000+0  00000+0 0  9990
2 36411   0.2521 279.2920 0003910 261.0082 238.8964  1.00271320 46332
GOES 16 [+]             
1 41866U 16071A   22299.78672508 -.00000235  00000+0  00000+0 0  9996
2 41866   0.0524 279.3585 0000486 335.1293 348.7089  1.00271690 21784
GOES 17 [+]             
1 43226U 18022A   22299.83152023  .00000111  00000+0  00000+0 0  9999
2 43226   0.0472 278.9270 0000356 270.6435   7.6602  1.00270942 17091
GOES 18 [+]             
1 51850U 22021A   22300.49161573  .00000108  00000+0  00000+0 0  9996
2 51850   0.0369  75.4256 0002482 149.4875 211.0236  1.00275136  2486
